ONEWEB-0572             
1 55151U 23004M   26157.50858314  .00000026  00000+0  33624-4 0  9990
2 55151  87.9142   7.9897 0001828  91.9734 268.1607 13.17647708166076
ONEWEB-0573             
1 55152U 23004N   26157.49225941 -.00000155  00000+0 -42580-3 0  9998
2 55152  87.9155 337.5987 0001774 120.1277 240.0031 13.18685793168282
ONEWEB-0588             
1 55153U 23004P   26157.48550718 -.00000186  00000+0 -50388-3 0  9990
2 55153  87.9154 337.6005 0002214 100.6162 259.5220 13.18685677168286
ONEWEB-0598             
1 55154U 23004Q   26157.32611772  .00000073  00000+0  16986-3 0  9991
2 55154  87.8892  23.2308 0001274 105.9876 254.1393 13.11415067164470
ONEWEB-0599             
1 55155U 23004R   26157.54571187 -.00000070  00000+0 -21457-3 0  9999
2 55155  87.9137   7.9810 0001589  85.5342 274.5971 13.17647102166081
ONEWEB-0614             
1 55156U 23004S   26157.32103036  .00000315  00000+0  85356-3 0  9998
2 55156  87.8897  23.2402 0001981  82.8929 277.2424 13.11415740164412
ONEWEB-0616             
1 55157U 23004T   26157.51196829 -.00000073  00000+0 -22244-3 0  9992
2 55157  87.9147   7.9914 0001302  58.1333 301.9925 13.17649301166298
ONEWEB-0617             
1 55158U 23004U   26157.38546988  .00000529  00000+0  14558-2 0  9995
2 55158  87.8900  23.2186 0002207  87.8076 272.3304 13.11416527164448
ONEWEB-0618             
1 55159U 23004V   26157.47716283  .00005851  00000+0  32878-3 0  9992
2 55159  86.9102 181.9832 0010904 346.9330  13.1626 15.13062183180645
ONEWEB-0619             
1 55160U 23004W   26157.54403104 -.00000031  00000+0 -11282-3 0  9990
2 55160  87.9153   7.9643 0002174  78.7083 281.4293 13.17650032166198
ONEWEB-0620             
1 55161U 23004X   26157.53296628  .00000552  00000+0  15207-2 0  9997
2 55161  87.8893  23.1987 0001793  90.2804 269.8529 13.11419261164434
ONEWEB-0621             
1 55162U 23004Y   26157.33119813 -.00000140  00000+0 -43074-3 0  9995
2 55162  87.8901  23.2265 0002002  85.2529 274.8827 13.11414915164389
ONEWEB-0622             
1 55163U 23004Z   26157.33628546 -.00000290  00000+0 -85379-3 0  9994
2 55163  87.8911  23.2262 0002431  93.4458 266.6948 13.11415772164370
ONEWEB-0623             
1 55164U 23004AA  26157.53896544  .00000000  00000+0 -33703-4 0  9995
2 55164  87.9141   7.9972 0002602  85.1157 275.0272 13.17648624166183
ONEWEB-0624             
1 55165U 23004AB  26157.52563556  .00000354  00000+0  94208-3 0  9996
2 55165  87.8948 352.7078 0001906  89.5966 270.5381 13.12927834166671
ONEWEB-0625             
1 55166U 23004AC  26157.52884567 -.00000181  00000+0 -49872-3 0  9992
2 55166  87.9145   7.9944 0001755  82.8141 277.3190 13.17648933166179
ONEWEB-0626             
1 55167U 23004AD  26157.51872604 -.00000144  00000+0 -40401-3 0  9999
2 55167  87.9141   7.9966 0001641 100.2669 259.8648 13.17649485166170
ONEWEB-0627             
1 55168U 23004AE  26157.50689306  .00000556  00000+0  13979-2 0  9998
2 55168  87.9161   7.9965 0002545  78.2201 281.9216 13.17653396166175
ONEWEB-0628             
1 55169U 23004AF  26157.50311571 -.00000236  00000+0 -69135-3 0  9998
2 55169  87.8946 352.7783 0002471  83.7816 276.3594 13.12444857166639
ONEWEB-0629             
1 55170U 23004AG  26157.48242917  .00000001  00000+0 -31838-4 0  9993
2 55170  87.9139   8.0003 0001976  79.3399 280.7955 13.17650316166171
ONEWEB-0631             
1 55171U 23004AH  26157.47876184 -.00000219  00000+0 -58952-3 0  9999
2 55171  87.9165 337.5664 0002011 105.6039 254.5315 13.18685885168260
ONEWEB-0709             
1 55172U 23004AJ  26157.14130536  .00000241  00000+0  64343-3 0  9992
2 55172  87.8892  23.2790 0001332 105.8141 254.3134 13.11420761164421
ONEWEB-0710             
1 55173U 23004AK  26157.49678094 -.00000232  00000+0 -63155-3 0  9999
2 55173  87.9140   7.9928 0001974  88.5581 271.5777 13.17648829166179
ONEWEB-0711             
1 55174U 23004AL  26157.34138249 -.00000539  00000+0 -15571-2 0  9995
2 55174  87.8885  23.2278 0002443  92.7390 267.4017 13.11416264164417
ONEWEB-0713             
1 55175U 23004AM  26157.36002268 -.00000319  00000+0 -93665-3 0  9996
2 55175  87.8906  23.2234 0002191  87.5457 272.5922 13.11419344164403
ONEWEB-0715             
1 55176U 23004AN  26157.35493563 -.00000415  00000+0 -12072-2 0  9997
2 55176  87.8894  23.2250 0001551 110.8266 249.3029 13.11418469164446
ONEWEB-0716             
1 55177U 23004AP  26157.49003071 -.00000169  00000+0 -46813-3 0  9991
2 55177  87.9142   7.9969 0001665  79.6038 280.5281 13.17648606166178
ONEWEB-0717             
1 55178U 23004AQ  26157.32127883 -.00000441  00000+0 -11700-2 0  9991
2 55178  87.9150   8.0169 0002382  94.7167 265.4237 13.17648707166209
ONEWEB-0719             
1 55179U 23004AR  26157.48328335 -.00000105  00000+0 -30277-3 0  9992
2 55179  87.9149   7.9652 0001825  80.7158 279.4180 13.17648518166177
ONEWEB-0530             
1 55796U 23029A   26157.55973784  .00000094  00000+0  19992-3 0  9992
2 55796  87.9181 276.5882 0002362  95.9219 264.2184 13.20771003159741
