OBJECT_NAME,OBJECT_ID,EPOCH,MEAN_MOTION,ECCENTRICITY,INCLINATION,RA_OF_ASC_NODE,ARG_OF_PERICENTER,MEAN_ANOMALY,EPHEMERIS_TYPE,CLASSIFICATION_TYPE,NORAD_CAT_ID,ELEMENT_SET_NO,REV_AT_EPOCH,BSTAR,MEAN_MOTION_DOT,MEAN_MOTION_DDOT
ONEWEB-0572,2023-004M,2026-06-06T12:12:21.583296,13.17647708,.00018287,87.9142,7.9897,91.9734,268.1607,0,U,55151,999,16607,.33624262E-4,.26E-6,0
ONEWEB-0573,2023-004N,2026-06-06T11:48:51.213024,13.18685793,.0001774,87.9155,337.5987,120.1277,240.0031,0,U,55152,999,16828,-.425802E-3,-.155E-5,0
ONEWEB-0588,2023-004P,2026-06-06T11:39:07.820352,13.18685677,.00022145,87.9154,337.6005,100.6162,259.5220,0,U,55153,999,16828,-.50387972E-3,-.186E-5,0
ONEWEB-0598,2023-004Q,2026-06-06T07:49:36.571008,13.11415067,.00012742,87.8892,23.2308,105.9876,254.1393,0,U,55154,999,16447,.16986102E-3,.73E-6,0
ONEWEB-0599,2023-004R,2026-06-06T13:05:49.505568,13.17647102,.00015893,87.9137,7.9810,85.5342,274.5971,0,U,55155,999,16608,-.21456756E-3,-.7E-6,0
ONEWEB-0614,2023-004S,2026-06-06T07:42:17.023104,13.11415740,.00019814,87.8897,23.2402,82.8929,277.2424,0,U,55156,999,16441,.85355803E-3,.315E-5,0
ONEWEB-0616,2023-004T,2026-06-06T12:17:14.060256,13.17649301,.00013023,87.9147,7.9914,58.1333,301.9925,0,U,55157,999,16629,-.22244486E-3,-.73E-6,0
ONEWEB-0617,2023-004U,2026-06-06T09:15:04.597632,13.11416527,.00022073,87.8900,23.2186,87.8076,272.3304,0,U,55158,999,16444,.14557941E-2,.529E-5,0
ONEWEB-0618,2023-004V,2026-06-06T11:27:06.868512,15.13062183,.00109046,86.9102,181.9832,346.9330,13.1626,0,U,55159,999,18064,.32877679E-3,.5851E-4,0
ONEWEB-0619,2023-004W,2026-06-06T13:03:24.281856,13.17650032,.00021749,87.9153,7.9643,78.7083,281.4293,0,U,55160,999,16619,-.11281816E-3,-.31E-6,0
ONEWEB-0620,2023-004X,2026-06-06T12:47:28.286592,13.11419261,.0001793,87.8893,23.1987,90.2804,269.8529,0,U,55161,999,16443,.15206713E-2,.552E-5,0
ONEWEB-0621,2023-004Y,2026-06-06T07:56:55.518432,13.11414915,.00020026,87.8901,23.2265,85.2529,274.8827,0,U,55162,999,16438,-.43073742E-3,-.14E-5,0
ONEWEB-0622,2023-004Z,2026-06-06T08:04:15.063744,13.11415772,.00024316,87.8911,23.2262,93.4458,266.6948,0,U,55163,999,16437,-.85378919E-3,-.29E-5,0
ONEWEB-0623,2023-004AA,2026-06-06T12:56:06.614016,13.17648624,.00026024,87.9141,7.9972,85.1157,275.0272,0,U,55164,999,16618,-.33702587E-4,0,0
ONEWEB-0624,2023-004AB,2026-06-06T12:36:54.912384,13.12927834,.00019061,87.8948,352.7078,89.5966,270.5381,0,U,55165,999,16667,.94208147E-3,.354E-5,0
ONEWEB-0625,2023-004AC,2026-06-06T12:41:32.265888,13.17648933,.00017554,87.9145,7.9944,82.8141,277.3190,0,U,55166,999,16617,-.49871764E-3,-.181E-5,0
ONEWEB-0626,2023-004AD,2026-06-06T12:26:57.929856,13.17649485,.00016416,87.9141,7.9966,100.2669,259.8648,0,U,55167,999,16617,-.40401311E-3,-.144E-5,0
ONEWEB-0627,2023-004AE,2026-06-06T12:09:55.560384,13.17653396,.00025457,87.9161,7.9965,78.2201,281.9216,0,U,55168,999,16617,.13979361E-2,.556E-5,0
ONEWEB-0628,2023-004AF,2026-06-06T12:04:29.197344,13.12444857,.00024717,87.8946,352.7783,83.7816,276.3594,0,U,55169,999,16663,-.69135355E-3,-.236E-5,0
ONEWEB-0629,2023-004AG,2026-06-06T11:34:41.880288,13.17650316,.00019764,87.9139,8.0003,79.3399,280.7955,0,U,55170,999,16617,-.31837995E-4,.1E-7,0
ONEWEB-0631,2023-004AH,2026-06-06T11:29:25.022976,13.18685885,.00020114,87.9165,337.5664,105.6039,254.5315,0,U,55171,999,16826,-.58951918E-3,-.219E-5,0
ONEWEB-0709,2023-004AJ,2026-06-06T03:23:28.783104,13.11420761,.00013321,87.8892,23.2790,105.8141,254.3134,0,U,55172,999,16442,.64343391E-3,.241E-5,0
ONEWEB-0710,2023-004AK,2026-06-06T11:55:21.873216,13.17648829,.00019745,87.9140,7.9928,88.5581,271.5777,0,U,55173,999,16617,-.63154977E-3,-.232E-5,0
ONEWEB-0711,2023-004AL,2026-06-06T08:11:35.447136,13.11416264,.00024434,87.8885,23.2278,92.7390,267.4017,0,U,55174,999,16441,-.15571498E-2,-.539E-5,0
ONEWEB-0713,2023-004AM,2026-06-06T08:38:25.959552,13.11419344,.00021912,87.8906,23.2234,87.5457,272.5922,0,U,55175,999,16440,-.93664628E-3,-.319E-5,0
ONEWEB-0715,2023-004AN,2026-06-06T08:31:06.438432,13.11418469,.00015515,87.8894,23.2250,110.8266,249.3029,0,U,55176,999,16444,-.12072347E-2,-.415E-5,0
ONEWEB-0716,2023-004AP,2026-06-06T11:45:38.653344,13.17648606,.00016652,87.9142,7.9969,79.6038,280.5281,0,U,55177,999,16617,-.46813349E-3,-.169E-5,0
ONEWEB-0717,2023-004AQ,2026-06-06T07:42:38.490912,13.17648707,.00023827,87.9150,8.0169,94.7167,265.4237,0,U,55178,999,16620,-.11700408E-2,-.441E-5,0
ONEWEB-0719,2023-004AR,2026-06-06T11:35:55.681440,13.17648518,.00018258,87.9149,7.9652,80.7158,279.4180,0,U,55179,999,16617,-.30276581E-3,-.105E-5,0
ONEWEB-0530,2023-029A,2026-06-06T13:26:01.349376,13.20771003,.00023623,87.9181,276.5882,95.9219,264.2184,0,U,55796,999,15974,.19992153E-3,.94E-6,0
